STARLINK-36031          
1 66593U 25270F   26064.34474678  .00030700  00000+0  11204-2 0  9995
2 66593  42.9994  80.5203 0000785 285.3490  74.7274 15.27584567 17040
STARLINK-36032          
1 66594U 25270G   26064.43968857  .00041449  00000+0  15074-2 0  9994
2 66594  43.0033  80.3752 0001435 263.3286  96.7402 15.27577665 16863
STARLINK-35711          
1 66595U 25270H   26064.34860328  .00034524  00000+0  12579-2 0  9992
2 66595  43.0009  80.5454 0002075 282.6746  77.3874 15.27587186 17154
STARLINK-35811          
1 66596U 25270J   26064.31920031  .00031661  00000+0  11546-2 0  9990
2 66596  43.0008  81.1931 0001616 267.1877  92.8790 15.27593858 17145
STARLINK-35820          
1 66597U 25270K   26064.43197895  .00029959  00000+0  10937-2 0  9998
2 66597  43.0039  80.3223 0001557 283.0926  76.9752 15.27583709 17168
STARLINK-35981          
1 66598U 25270L   26064.39856859  .00035586  00000+0  12964-2 0  9991
2 66598  43.0004  80.0588 0001351 280.4999  79.5701 15.27580652 16903
STARLINK-35930          
1 66599U 25270M   26064.42169478  .00031242  00000+0  11397-2 0  9994
2 66599  43.0070  80.2407 0002515 293.6287  66.4301 15.27589937 17051
STARLINK-35980          
1 66600U 25270N   26064.05507738  .00036153  00000+0  13165-2 0  9992
2 66600  43.0005  82.6450 0001329 217.0312 143.0448 15.27588338 16896
STARLINK-35978          
1 66601U 25270P   26064.09348531  .00025561  00000+0  93556-3 0  9995
2 66601  43.0015  82.0754 0000405 342.3631  17.7206 15.27566157 16848
STARLINK-36050          
1 66602U 25270Q   26064.05379970  .00028690  00000+0  10474-2 0  9996
2 66602  42.9980  82.6385 0001052 172.7233 187.3634 15.27600673 16892
STARLINK-36048          
1 66603U 25270R   26064.40627909  .00035457  00000+0  12920-2 0  9991
2 66603  42.9998  80.1187 0001666 264.5662  95.4999 15.27575779 16950
STARLINK-35977          
1 66604U 25270S   26064.46009600  .00030232  00000+0  11031-2 0  9998
2 66604  43.0048  79.6607 0002531 281.1246  78.9321 15.27594200 17062
STARLINK-36052          
1 66605U 25270T   26064.43583170  .00031051  00000+0  11331-2 0  9998
2 66605  43.0036  80.3442 0001726 265.7938  94.2716 15.27580706 17051
STARLINK-36063          
1 66606U 25270U   26064.41141732  .00031368  00000+0  11446-2 0  9999
2 66606  43.0024  80.1549 0001830 264.8395  95.2248 15.27579722 17055
STARLINK-35993          
1 66607U 25270V   26064.43326342  .00035594  00000+0  12965-2 0  9996
2 66607  43.0044  80.3240 0001320 285.4975  74.5731 15.27586301 16951
STARLINK-36036          
1 66608U 25270W   26064.08063291  .00024104  00000+0  88225-3 0  9997
2 66608  42.9960  81.9688 0000779 167.6276 192.4595 15.27592608 16845
STARLINK-36034          
1 66609U 25270X   26064.32305071  .00028601  00000+0  10449-2 0  9998
2 66609  43.0011  81.2114 0001035 245.2932 114.7812 15.27578333 16871
STARLINK-35680          
1 66610U 25270Y   26064.42555308  .00035436  00000+0  12908-2 0  9997
2 66610  43.0033  80.2641 0001242 273.9943  86.0766 15.27587142 17161
STARLINK-35583          
1 66611U 25270Z   26064.41784413  .00024634  00000+0  90194-3 0  9990
2 66611  43.0019  80.2030 0001338 278.3665  81.7035 15.27571879 17165
STARLINK-36039          
1 66612U 25270AA  26064.43840246  .00043440  00000+0  15785-2 0  9998
2 66612  43.0046  80.3686 0002057 287.0005  73.0622 15.27587012 17058
STARLINK-36037          
1 66613U 25270AB  26064.10118822  .00013618  00000+0  50364-3 0  9998
2 66613  42.9978  82.1287 0001001 220.2677 139.8101 15.27569346 17008
STARLINK-36040          
1 66614U 25270AC  26064.45125049  .00032050  00000+0  11686-2 0  9990
2 66614  43.0041  80.4582 0002384 284.8052  75.2535 15.27594832 16897
STARLINK-35988          
1 66615U 25270AD  26064.41655799  .00027270  00000+0  99682-3 0  9998
2 66615  43.0046  80.1983 0001695 255.1992 104.8672 15.27580306 16895
STARLINK-35391          
1 66616U 25270AE  26064.44354379  .00024974  00000+0  91364-3 0  9999
2 66616  43.0032  80.4004 0001629 275.2135  84.8531 15.27592487 17162
STARLINK-35940          
1 66617U 25271A   26064.63246082  .00050137  00000+0  16938-2 0  9996
2 66617  53.1586 158.9150 0001190  79.8065 280.3070 15.30194199 16943
STARLINK-35970          
1 66618U 25271B   26064.52810304  .00039507  00000+0  13399-2 0  9995
2 66618  53.1606 158.9628 0001226  98.5100 261.6040 15.30176718 16930
STARLINK-35951          
1 66619U 25271C   26064.57135648  .00030149  00000+0  10251-2 0  9999
2 66619  53.1593 159.2414 0001197  97.8475 262.2662 15.30227159 16930
STARLINK-35936          
1 66620U 25271D   26064.64723798  .00041312  00000+0  13990-2 0  9995
2 66620  53.1600 159.0059 0001286  53.4769 306.6350 15.30205288 16944
STARLINK-35847          
1 66621U 25271E   26064.63879409  .00052362  00000+0  17681-2 0  9994
2 66621  53.1592 158.9416 0001387  67.0695 293.0452 15.30190272 16949
STARLINK-35950          
1 66622U 25271F   26064.63457496  .00025238  00000+0  86158-3 0  9991
2 66622  53.1592 158.9265 0001215  96.1939 263.9200 15.30191517 16946
STARLINK-35920          
1 66623U 25271G   26064.54815281  .00027884  00000+0  95017-3 0  9995
2 66623  53.1578 159.0985 0001136  85.1587 274.9544 15.30195788 16937
STARLINK-35927          
1 66624U 25271H   26064.52915613  .00037361  00000+0  12692-2 0  9992
2 66624  53.1602 158.9775 0000992  91.2198 268.8916 15.30149091 16937
STARLINK-35929          
1 66625U 25271J   26064.53337453  .00033955  00000+0  11529-2 0  9997
2 66625  53.1599 159.0030 0001131 137.6943 222.4145 15.30212102 16932
STARLINK-35902          
1 66626U 25271K   26064.57981075  .00027836  00000+0  94876-3 0  9995
2 66626  53.1605 159.2974 0001173  68.1455 291.9670 15.30188885 16936
STARLINK-35904          
1 66627U 25271L   26064.49761040  .00046419  00000+0  15703-2 0  9994
2 66627  53.1584 159.4925 0001276  75.1859 284.9283 15.30185994 16885
STARLINK-35862          
1 66628U 25271M   26064.62401665  .00020693  00000+0  70874-3 0  9991
2 66628  53.1577 158.8585 0001054  78.4652 281.6467 15.30203729 16946
STARLINK-35949          
1 66630U 25271P   26064.54181769  .00028711  00000+0  97759-3 0  9995
2 66630  53.1594 159.0569 0001287  81.7216 278.3930 15.30205472 16938
STARLINK-35965          
1 66631U 25271Q   26064.53232183  .00034559  00000+0  11729-2 0  9991
2 66631  53.1600 158.9956 0001786  92.6666 267.4539 15.30217981 16931
STARLINK-35973          
1 66632U 25271R   26064.48916615  .00018874  00000+0  64774-3 0  9996
2 66632  53.1580 159.4409 0001193  79.0468 281.0667 15.30199942 16883
STARLINK-35948          
1 66633U 25271S   26064.55132401  .00029488  00000+0  10037-2 0  9993
2 66633  53.1583 159.1255 0002805  36.2464 323.8726 15.30201125 16939
STARLINK-35967          
1 66634U 25271T   26063.30188257  .00037378  00000+0  12663-2 0  9990
2 66634  53.1586 164.8271 0001124  82.0354 278.0775 15.30239249 16702
STARLINK-35955          
1 66635U 25271U   26064.56609254  .00027030  00000+0  92216-3 0  9992
2 66635  53.1576 159.2119 0001186  76.5133 283.5999 15.30174376 16935
STARLINK-35968          
1 66636U 25271V   26064.57242156  .00037138  00000+0  12600-2 0  9996
2 66636  53.1597 159.2484 0001005 104.5802 255.5310 15.30195565 16938
STARLINK-35953          
1 66637U 25271W   26063.31560113  .00038104  00000+0  12904-2 0  9995
2 66637  53.1589 164.9112 0001330  81.2252 278.8900 15.30239990 16745
STARLINK-35972          
1 66638U 25271X   26064.64406988  .00031684  00000+0  10778-2 0  9995
2 66638  53.1603 158.9793 0001101 105.5652 254.5470 15.30185951 16943
STARLINK-35908          
1 66639U 25271Y   26064.62718829  .00031114  00000+0  10578-2 0  9990
2 66639  53.1581 158.8737 0001332 109.3671 250.7474 15.30212066 16945
STARLINK-35921          
1 66640U 25271Z   26064.52704558  .00038961  00000+0  13209-2 0  9996
2 66640  53.1584 158.9623 0001286  64.2907 295.8226 15.30193870 16939
STARLINK-35923          
1 66641U 25271AA  26064.52188105  .00044392  00000+0  15015-2 0  9993
2 66641  53.1613 159.6374 0002183  85.0614 275.0636 15.30209458 16921
STARLINK-35926          
1 66642U 25271AB  26064.64090053  .00030703  00000+0  10438-2 0  9996
2 66642  53.1611 158.9575 0001273  71.0434 289.0705 15.30220300 16908
STARLINK-35918          
1 66643U 25271AC  26064.48072299  .00022186  00000+0  75968-3 0  9997
2 66643  53.1587 159.3840 0001416 124.8351 235.2783 15.30169357 16920
STARLINK-35938          
1 66644U 25271AD  26064.64934697  .00040712  00000+0  13793-2 0  9997
2 66644  53.1610 159.0145 0001297  70.5186 289.5955 15.30195909 16940
SHENZHOU-22             
1 66645U 25272A   26064.55578758  .00019337  00000+0  23188-3 0  9990
2 66645  41.4657 233.3100 0006864 247.1832 112.8282 15.60433514267527
COSMOS 2597 (RODNIK-S *)
1 66647U 25273A   26064.56081127  .00000010  00000+0  18651-5 0  9992
2 66647  82.4956 234.9479 0012506  86.1678 274.0832 12.42896612 12429
COSMOS 2598 (RODNIK-S *)
1 66648U 25273B   26064.53170009  .00000014  00000+0  26041-4 0  9993
2 66648  82.4995 234.9625 0011141  56.8308 303.3839 12.42915573 12425
COSMOS 2599 (RODNIK-S *)
1 66649U 25273C   26064.50726564  .00000024  00000+0  10135-3 0  9991
2 66649  82.4994 235.0612 0016453  72.3291 287.9583 12.42893870 12415
BEE-1000                
1 66650U 25274A   26064.51407891  .00004584  00000+0  45367-3 0  9994
2 66650  97.7445 355.2396 0011672 346.9769  13.1147 14.92300120 14740
2025-274B               
1 66651U 25274B   26064.36669327  .00005568  00000+0  54617-3 0  9993
2 66651  97.7441 355.1182 0011896 346.5543  13.5358 14.92563356 14721
2025-274C               
1 66652U 25274C   26064.22943047  .00004703  00000+0  46285-3 0  9995
2 66652  97.7447 354.9963 0011651 353.2163   6.8897 14.92517233 14708
2025-274D               
1 66653U 25274D   26064.36682912  .00003373  00000+0  33464-3 0  9999
2 66653  97.7443 355.1232 0012434 348.4555  11.6377 14.92380346 14720
